QIANFAN-73              
1 63159U 25046A   26009.30541474  .00000198  00000+0  28789-3 0  9990
2 63159  88.9788 317.1723 0016762  47.8386 312.4186 13.50986677 51133
QIANFAN-74              
1 63160U 25046B   26009.21478945  .00000219  00000+0  32065-3 0  9990
2 63160  88.9788 317.0705 0001944  69.9852 290.1508 13.50983701 51183
QIANFAN-75              
1 63161U 25046C   26009.20199071  .00000224  00000+0  32765-3 0  9993
2 63161  88.9789 317.3058 0017995  50.4266 309.8472 13.50986496 51054
QIANFAN-76              
1 63162U 25046D   26009.27270348  .00000220  00000+0  32207-3 0  9995
2 63162  88.9788 317.2790 0015551  51.1952 309.0586 13.50989028 51076
QIANFAN-77              
1 63163U 25046E   26009.27963654  .00000533  00000+0  37844-3 0  9994
2 63163  88.9789 315.0596 0015370   3.1486 356.9785 13.96116728 52292
QIANFAN-78              
1 63164U 25046F   26009.23954648  .00000228  00000+0  33436-3 0  9998
2 63164  88.9788 317.1461 0016954  53.0541 307.2159 13.50987763 51143
QIANFAN-79              
1 63165U 25046G   26009.19411985  .00000062  00000+0  76456-4 0  9992
2 63165  88.9792 317.2593 0016667  51.7280 308.5367 13.50984243 51080
QIANFAN-80              
1 63166U 25046H   26009.21066913  .00000232  00000+0  34055-3 0  9990
2 63166  88.9789 316.9639 0015645  55.5656 304.6971 13.50987589 51240
